{
  "updatedAt": "2026-03-20T16:26:01.420Z",
  "entries": {
    "kompsat-26032": {
      "fetchedAt": "2026-03-20T16:26:01.420Z",
      "fleetEntry": {
        "id": "kompsat-26032",
        "name": "KOMPSAT",
        "englishName": "KOMPSAT",
        "domesticName": "KOMPSAT",
        "color": "#9bdeac",
        "norad": "26032",
        "orbitClass": "leo",
        "orbitLabel": "LEO SSO",
        "missionType": "earth-observation",
        "missionLabel": "지구관측",
        "operationalStatus": "비현역",
        "objectId": "1999-070A",
        "launchDate": "1999-12-21",
        "sourceDate": "2026-03-20",
        "sourceLabel": "Space-Track cached GP",
        "omm": {
          "CCSDS_OMM_VERS": "3.0",
          "COMMENT": "GENERATED VIA SPACE-TRACK.ORG API",
          "CREATION_DATE": "2026-03-20T14:36:41",
          "ORIGINATOR": "18 SPCS",
          "OBJECT_NAME": "KOMPSAT",
          "OBJECT_ID": "1999-070A",
          "CENTER_NAME": "EARTH",
          "REF_FRAME": "TEME",
          "TIME_SYSTEM": "UTC",
          "MEAN_ELEMENT_THEORY": "SGP4",
          "EPOCH": "2026-03-20T09:41:36.432096",
          "MEAN_MOTION": 14.76509521,
          "ECCENTRICITY": 0.000397,
          "INCLINATION": 98.2953,
          "RA_OF_ASC_NODE": 248.6791,
          "ARG_OF_PERICENTER": 172.2456,
          "MEAN_ANOMALY": 187.8814,
          "EPHEMERIS_TYPE": 0,
          "CLASSIFICATION_TYPE": "U",
          "NORAD_CAT_ID": 26032,
          "ELEMENT_SET_NO": 999,
          "REV_AT_EPOCH": 68075,
          "BSTAR": 0.00018416,
          "MEAN_MOTION_DOT": 0.00001229,
          "MEAN_MOTION_DDOT": 0,
          "SEMIMAJOR_AXIS": "7018.501",
          "PERIOD": "97.527",
          "APOAPSIS": "643.152",
          "PERIAPSIS": "637.579",
          "OBJECT_TYPE": "PAYLOAD",
          "RCS_SIZE": "LARGE",
          "COUNTRY_CODE": "SKOR",
          "LAUNCH_DATE": "1999-12-21",
          "SITE": "AFWTR",
          "DECAY_DATE": null,
          "FILE": "5093612",
          "GP_ID": "316576458",
          "TLE_LINE0": "0 KOMPSAT",
          "TLE_LINE1": "1 26032U 99070A   26079.40389389  .00001229  00000-0  18416-3 0  9993",
          "TLE_LINE2": "2 26032  98.2953 248.6791 0003970 172.2456 187.8814 14.76509521680757"
        }
      }
    },
    "kaistsat-4-27945": {
      "fetchedAt": "2026-03-20T16:26:01.420Z",
      "fleetEntry": {
        "id": "kaistsat-4-27945",
        "name": "KAISTSAT 4",
        "englishName": "KAISTSAT 4",
        "domesticName": "KAISTSAT 4",
        "color": "#79c6a5",
        "norad": "27945",
        "orbitClass": "leo",
        "orbitLabel": "LEO SSO",
        "missionType": "technology",
        "missionLabel": "기술실증/학술",
        "operationalStatus": "비현역",
        "objectId": "2003-042G",
        "launchDate": "2003-09-27",
        "sourceDate": "2026-03-20",
        "sourceLabel": "Space-Track cached GP",
        "omm": {
          "CCSDS_OMM_VERS": "3.0",
          "COMMENT": "GENERATED VIA SPACE-TRACK.ORG API",
          "CREATION_DATE": "2026-03-20T14:46:35",
          "ORIGINATOR": "18 SPCS",
          "OBJECT_NAME": "KAISTSAT 4",
          "OBJECT_ID": "2003-042G",
          "CENTER_NAME": "EARTH",
          "REF_FRAME": "TEME",
          "TIME_SYSTEM": "UTC",
          "MEAN_ELEMENT_THEORY": "SGP4",
          "EPOCH": "2026-03-20T10:11:23.107200",
          "MEAN_MOTION": 14.67805336,
          "ECCENTRICITY": 0.0010281,
          "INCLINATION": 98.3748,
          "RA_OF_ASC_NODE": 246.1278,
          "ARG_OF_PERICENTER": 254.9547,
          "MEAN_ANOMALY": 105.0519,
          "EPHEMERIS_TYPE": 0,
          "CLASSIFICATION_TYPE": "U",
          "NORAD_CAT_ID": 27945,
          "ELEMENT_SET_NO": 999,
          "REV_AT_EPOCH": 20101,
          "BSTAR": 0.000082342,
          "MEAN_MOTION_DOT": 0.00000418,
          "MEAN_MOTION_DDOT": 0,
          "SEMIMAJOR_AXIS": "7046.220",
          "PERIOD": "98.106",
          "APOAPSIS": "675.329",
          "PERIAPSIS": "660.841",
          "OBJECT_TYPE": "PAYLOAD",
          "RCS_SIZE": "MEDIUM",
          "COUNTRY_CODE": "SKOR",
          "LAUNCH_DATE": "2003-09-27",
          "SITE": "PKMTR",
          "DECAY_DATE": null,
          "FILE": "5093753",
          "GP_ID": "316579654",
          "TLE_LINE0": "0 KAISTSAT 4",
          "TLE_LINE1": "1 27945U 03042G   26079.42457300  .00000418  00000-0  82342-4 0  9991",
          "TLE_LINE2": "2 27945  98.3748 246.1278 0010281 254.9547 105.0519 14.67805336201014"
        }
      }
    },
    "koreasat-5-29349": {
      "fetchedAt": "2026-03-20T16:26:01.420Z",
      "fleetEntry": {
        "id": "koreasat-5-29349",
        "name": "KOREASAT 5",
        "englishName": "KOREASAT 5",
        "domesticName": "KOREASAT 5",
        "color": "#c7ceea",
        "norad": "29349",
        "orbitClass": "geo",
        "orbitLabel": "GEO",
        "missionType": "communications",
        "missionLabel": "상업 통신",
        "operationalStatus": "비현역",
        "objectId": "2006-034A",
        "launchDate": "2006-08-22",
        "sourceDate": "2026-03-20",
        "sourceLabel": "Space-Track cached GP",
        "omm": {
          "CCSDS_OMM_VERS": "3.0",
          "COMMENT": "GENERATED VIA SPACE-TRACK.ORG API",
          "CREATION_DATE": "2026-03-20T14:46:35",
          "ORIGINATOR": "18 SPCS",
          "OBJECT_NAME": "KOREASAT 5",
          "OBJECT_ID": "2006-034A",
          "CENTER_NAME": "EARTH",
          "REF_FRAME": "TEME",
          "TIME_SYSTEM": "UTC",
          "MEAN_ELEMENT_THEORY": "SGP4",
          "EPOCH": "2026-03-20T13:21:10.286784",
          "MEAN_MOTION": 1.00272491,
          "ECCENTRICITY": 0.0001773,
          "INCLINATION": 1.5544,
          "RA_OF_ASC_NODE": 84.1009,
          "ARG_OF_PERICENTER": 308.723,
          "MEAN_ANOMALY": 98.6078,
          "EPHEMERIS_TYPE": 0,
          "CLASSIFICATION_TYPE": "U",
          "NORAD_CAT_ID": 29349,
          "ELEMENT_SET_NO": 999,
          "REV_AT_EPOCH": 4043,
          "BSTAR": 0,
          "MEAN_MOTION_DOT": -0.00000354,
          "MEAN_MOTION_DDOT": 0,
          "SEMIMAJOR_AXIS": "42164.534",
          "PERIOD": "1436.087",
          "APOAPSIS": "35793.875",
          "PERIAPSIS": "35778.923",
          "OBJECT_TYPE": "PAYLOAD",
          "RCS_SIZE": "LARGE",
          "COUNTRY_CODE": "SKOR",
          "LAUNCH_DATE": "2006-08-22",
          "SITE": "SEAL",
          "DECAY_DATE": null,
          "FILE": "5093794",
          "GP_ID": "316580714",
          "TLE_LINE0": "0 KOREASAT 5",
          "TLE_LINE1": "1 29349U 06034A   26079.55636906 -.00000354  00000-0  00000+0 0  9996",
          "TLE_LINE2": "2 29349   1.5544  84.1009 0001773 308.7230  98.6078  1.00272491 40436"
        }
      }
    },
    "coms-1-36744": {
      "fetchedAt": "2026-03-20T16:26:01.420Z",
      "fleetEntry": {
        "id": "coms-1-36744",
        "name": "COMS 1",
        "englishName": "COMS 1",
        "domesticName": "COMS 1",
        "color": "#8bd0ff",
        "norad": "36744",
        "orbitClass": "geo",
        "orbitLabel": "GEO",
        "missionType": "earth-observation",
        "missionLabel": "기상·해양 관측",
        "operationalStatus": "비현역",
        "objectId": "2010-032A",
        "launchDate": "2010-06-26",
        "sourceDate": "2026-03-20",
        "sourceLabel": "Space-Track cached GP",
        "omm": {
          "CCSDS_OMM_VERS": "3.0",
          "COMMENT": "GENERATED VIA SPACE-TRACK.ORG API",
          "CREATION_DATE": "2026-03-20T14:26:40",
          "ORIGINATOR": "18 SPCS",
          "OBJECT_NAME": "COMS 1",
          "OBJECT_ID": "2010-032A",
          "CENTER_NAME": "EARTH",
          "REF_FRAME": "TEME",
          "TIME_SYSTEM": "UTC",
          "MEAN_ELEMENT_THEORY": "SGP4",
          "EPOCH": "2026-03-20T10:35:16.516032",
          "MEAN_MOTION": 1.00272407,
          "ECCENTRICITY": 0.0000755,
          "INCLINATION": 4.5748,
          "RA_OF_ASC_NODE": 76.6108,
          "ARG_OF_PERICENTER": 282.9023,
          "MEAN_ANOMALY": 105.4327,
          "EPHEMERIS_TYPE": 0,
          "CLASSIFICATION_TYPE": "U",
          "NORAD_CAT_ID": 36744,
          "ELEMENT_SET_NO": 999,
          "REV_AT_EPOCH": 5020,
          "BSTAR": 0,
          "MEAN_MOTION_DOT": -0.00000339,
          "MEAN_MOTION_DDOT": 0,
          "SEMIMAJOR_AXIS": "42164.558",
          "PERIOD": "1436.088",
          "APOAPSIS": "35789.606",
          "PERIAPSIS": "35783.239",
          "OBJECT_TYPE": "PAYLOAD",
          "RCS_SIZE": "LARGE",
          "COUNTRY_CODE": "SKOR",
          "LAUNCH_DATE": "2010-06-26",
          "SITE": "FRGUI",
          "DECAY_DATE": null,
          "FILE": "5093179",
          "GP_ID": "316565262",
          "TLE_LINE0": "0 COMS 1",
          "TLE_LINE1": "1 36744U 10032A   26079.44116338 -.00000339  00000-0  00000+0 0  9999",
          "TLE_LINE2": "2 36744   4.5748  76.6108 0000755 282.9023 105.4327  1.00272407 50207"
        }
      }
    }
  }
}